SL-16 R/B               
1 22803U 93059B   26117.17782149  .00000233  00000+0  13882-3 0  9999
2 22803  70.9894 268.8717 0015785 142.3508 217.8724 14.17239400686408
ARIANE 40 R/B           
1 22830U 93061H   26117.09073047  .00000175  00000+0  79824-4 0  9997
2 22830  98.4843 185.0032 0011650 136.8690 223.3409 14.32884981701030
COSMOS 2278             
1 23087U 94023A   26117.25554021  .00000155  00000+0  10581-3 0  9997
2 23087  71.0538  73.4854 0010579 305.8296  54.1843 14.14388096651676
SL-16 R/B               
1 23088U 94023B   26117.28011043  .00000048  00000+0  49496-4 0  9992
2 23088  70.9998 328.8440 0005087 240.4833 119.5783 14.15015372652969
SL-16 R/B               
1 23343U 94074B   26117.08469447  .00000421  00000+0  62893-4 0  9996
2 23343  97.7035 145.9259 0007973  69.1222 352.4386 14.79457470694403
SL-16 R/B               
1 23405U 94077B   26117.10144213  .00000004  00000+0  26728-4 0  9996
2 23405  70.9831 250.6355 0000319  98.4800 261.6359 14.15572694623087
ARIANE 40+ R/B          
1 23561U 95021B   26117.17838797  .00000275  00000+0  10153-3 0  9997
2 23561  98.4428 187.9854 0006627   7.8369  18.1024 14.39804395626220
SL-16 R/B               
1 23705U 95058B   26117.18144062 -.00000194  00000+0 -75139-4 0  9991
2 23705  71.0207  78.4453 0010998  36.4688 323.7182 14.15504667574718
SL-16 R/B               
1 24298U 96051B   26117.25336694  .00000096  00000+0  78705-4 0  9996
2 24298  70.7606  72.4466 0012497  63.6479 296.5922 14.12428257528501
ORBVIEW 2 (SEASTAR)     
1 24883U 97037A   26117.06935032  .00000248  00000+0  10232-3 0  9990
2 24883  98.8644 282.6833 0001076 281.5418  78.5645 14.35525917515414
SL-16 R/B               
1 25400U 98043G   26117.28445774  .00000056  00000+0  42259-4 0  9999
2 25400  98.8328  71.0171 0008952 229.8333 130.2064 14.26060170445918
SL-16 R/B               
1 25407U 98045B   26117.23919017 -.00000153  00000+0 -53259-4 0  9991
2 25407  71.0100  79.4732 0009308 301.6153  58.4061 14.16196529433974
ISS (ZARYA)             
1 25544U 98067A   26117.16773235  .00010693  00000+0  20200-3 0  9996
2 25544  51.6319 192.6271 0007042 355.6641   4.4286 15.48984622563847
CZ-4B R/B               
1 25732U 99025C   26117.12409365  .00000035  00000+0  37535-4 0  9995
2 25732  98.6533 160.2360 0036697 203.9553 176.6051 14.18274305395032
OKEAN-O                 
1 25860U 99039A   26117.11519700  .00000615  00000+0  87351-4 0  9991
2 25860  97.9354 176.4909 0001549 113.8561 246.2814 14.80404536441551
SL-16 R/B               
1 25861U 99039B   26117.11718757  .00000517  00000+0  72136-4 0  9991
2 25861  97.9879 176.1174 0016168  99.8806 260.4232 14.81791793444036
DELTA 2 R/B             
1 25876U 99041E   26117.28516582  .00000714  00000+0  15413-3 0  9993
2 25876  51.7599 107.1411 0502443 131.7315 232.7730 14.11932095369894
