[{"OBJECT_NAME":"SL-16 R/B","OBJECT_ID":"1993-059B","EPOCH":"2026-04-27T04:16:03.776736","MEAN_MOTION":14.172394,"ECCENTRICITY":0.00157858,"INCLINATION":70.9894,"RA_OF_ASC_NODE":268.8717,"ARG_OF_PERICENTER":142.3508,"MEAN_ANOMALY":217.8724,"EPHEMERIS_TYPE":0,"CLASSIFICATION_TYPE":"U","NORAD_CAT_ID":22803,"ELEMENT_SET_NO":999,"REV_AT_EPOCH":68640,"BSTAR":0.00013882368,"MEAN_MOTION_DOT":2.33e-6,"MEAN_MOTION_DDOT":0},{"OBJECT_NAME":"ARIANE 40 R/B","OBJECT_ID":"1993-061H","EPOCH":"2026-04-27T02:10:39.112608","MEAN_MOTION":14.32884981,"ECCENTRICITY":0.00116504,"INCLINATION":98.4843,"RA_OF_ASC_NODE":185.0032,"ARG_OF_PERICENTER":136.869,"MEAN_ANOMALY":223.3409,"EPHEMERIS_TYPE":0,"CLASSIFICATION_TYPE":"U","NORAD_CAT_ID":22830,"ELEMENT_SET_NO":999,"REV_AT_EPOCH":70103,"BSTAR":7.9823793e-5,"MEAN_MOTION_DOT":1.75e-6,"MEAN_MOTION_DDOT":0},{"OBJECT_NAME":"COSMOS 2278","OBJECT_ID":"1994-023A","EPOCH":"2026-04-27T06:07:58.674144","MEAN_MOTION":14.14388096,"ECCENTRICITY":0.00105795,"INCLINATION":71.0538,"RA_OF_ASC_NODE":73.4854,"ARG_OF_PERICENTER":305.8296,"MEAN_ANOMALY":54.1843,"EPHEMERIS_TYPE":0,"CLASSIFICATION_TYPE":"U","NORAD_CAT_ID":23087,"ELEMENT_SET_NO":999,"REV_AT_EPOCH":65167,"BSTAR":0.00010581466,"MEAN_MOTION_DOT":1.55e-6,"MEAN_MOTION_DDOT":0},{"OBJECT_NAME":"SL-16 R/B","OBJECT_ID":"1994-023B","EPOCH":"2026-04-27T06:43:21.541152","MEAN_MOTION":14.15015372,"ECCENTRICITY":0.00050873,"INCLINATION":70.9998,"RA_OF_ASC_NODE":328.844,"ARG_OF_PERICENTER":240.4833,"MEAN_ANOMALY":119.5783,"EPHEMERIS_TYPE":0,"CLASSIFICATION_TYPE":"U","NORAD_CAT_ID":23088,"ELEMENT_SET_NO":999,"REV_AT_EPOCH":65296,"BSTAR":4.9496183e-5,"MEAN_MOTION_DOT":4.8e-7,"MEAN_MOTION_DDOT":0},{"OBJECT_NAME":"SL-16 R/B","OBJECT_ID":"1994-074B","EPOCH":"2026-04-27T02:01:57.602208","MEAN_MOTION":14.7945747,"ECCENTRICITY":0.00079735,"INCLINATION":97.7035,"RA_OF_ASC_NODE":145.9259,"ARG_OF_PERICENTER":69.1222,"MEAN_ANOMALY":352.4386,"EPHEMERIS_TYPE":0,"CLASSIFICATION_TYPE":"U","NORAD_CAT_ID":23343,"ELEMENT_SET_NO":999,"REV_AT_EPOCH":69440,"BSTAR":6.289308e-5,"MEAN_MOTION_DOT":4.21e-6,"MEAN_MOTION_DDOT":0},{"OBJECT_NAME":"SL-16 R/B","OBJECT_ID":"1994-077B","EPOCH":"2026-04-27T02:26:04.600032","MEAN_MOTION":14.15572694,"ECCENTRICITY":3.195e-5,"INCLINATION":70.9831,"RA_OF_ASC_NODE":250.6355,"ARG_OF_PERICENTER":98.48,"MEAN_ANOMALY":261.6359,"EPHEMERIS_TYPE":0,"CLASSIFICATION_TYPE":"U","NORAD_CAT_ID":23405,"ELEMENT_SET_NO":999,"REV_AT_EPOCH":62308,"BSTAR":2.6727889e-5,"MEAN_MOTION_DOT":4.0e-8,"MEAN_MOTION_DDOT":0},{"OBJECT_NAME":"ARIANE 40+ R/B","OBJECT_ID":"1995-021B","EPOCH":"2026-04-27T04:16:52.720608","MEAN_MOTION":14.39804395,"ECCENTRICITY":0.00066271,"INCLINATION":98.4428,"RA_OF_ASC_NODE":187.9854,"ARG_OF_PERICENTER":7.8369,"MEAN_ANOMALY":18.1024,"EPHEMERIS_TYPE":0,"CLASSIFICATION_TYPE":"U","NORAD_CAT_ID":23561,"ELEMENT_SET_NO":999,"REV_AT_EPOCH":62622,"BSTAR":0.00010152974,"MEAN_MOTION_DOT":2.75e-6,"MEAN_MOTION_DDOT":0},{"OBJECT_NAME":"SL-16 R/B","OBJECT_ID":"1995-058B","EPOCH":"2026-04-27T04:21:16.469568","MEAN_MOTION":14.15504667,"ECCENTRICITY":0.00109982,"INCLINATION":71.0207,"RA_OF_ASC_NODE":78.4453,"ARG_OF_PERICENTER":36.4688,"MEAN_ANOMALY":323.7182,"EPHEMERIS_TYPE":0,"CLASSIFICATION_TYPE":"U","NORAD_CAT_ID":23705,"ELEMENT_SET_NO":999,"REV_AT_EPOCH":57471,"BSTAR":-7.5138661e-5,"MEAN_MOTION_DOT":-1.94e-6,"MEAN_MOTION_DDOT":0},{"OBJECT_NAME":"SL-16 R/B","OBJECT_ID":"1996-051B","EPOCH":"2026-04-27T06:04:50.903616","MEAN_MOTION":14.12428257,"ECCENTRICITY":0.00124972,"INCLINATION":70.7606,"RA_OF_ASC_NODE":72.4466,"ARG_OF_PERICENTER":63.6479,"MEAN_ANOMALY":296.5922,"EPHEMERIS_TYPE":0,"CLASSIFICATION_TYPE":"U","NORAD_CAT_ID":24298,"ELEMENT_SET_NO":999,"REV_AT_EPOCH":52850,"BSTAR":7.8705115e-5,"MEAN_MOTION_DOT":9.6e-7,"MEAN_MOTION_DDOT":0},{"OBJECT_NAME":"ORBVIEW 2 (SEASTAR)","OBJECT_ID":"1997-037A","EPOCH":"2026-04-27T01:39:51.867648","MEAN_MOTION":14.35525917,"ECCENTRICITY":0.00010761,"INCLINATION":98.8644,"RA_OF_ASC_NODE":282.6833,"ARG_OF_PERICENTER":281.5418,"MEAN_ANOMALY":78.5645,"EPHEMERIS_TYPE":0,"CLASSIFICATION_TYPE":"U","NORAD_CAT_ID":24883,"ELEMENT_SET_NO":999,"REV_AT_EPOCH":51541,"BSTAR":0.00010231666,"MEAN_MOTION_DOT":2.48e-6,"MEAN_MOTION_DDOT":0},{"OBJECT_NAME":"SL-16 R/B","OBJECT_ID":"1998-043G","EPOCH":"2026-04-27T06:49:37.148736","MEAN_MOTION":14.2606017,"ECCENTRICITY":0.00089523,"INCLINATION":98.8328,"RA_OF_ASC_NODE":71.0171,"ARG_OF_PERICENTER":229.8333,"MEAN_ANOMALY":130.2064,"EPHEMERIS_TYPE":0,"CLASSIFICATION_TYPE":"U","NORAD_CAT_ID":25400,"ELEMENT_SET_NO":999,"REV_AT_EPOCH":44591,"BSTAR":4.2258545e-5,"MEAN_MOTION_DOT":5.6e-7,"MEAN_MOTION_DDOT":0},{"OBJECT_NAME":"SL-16 R/B","OBJECT_ID":"1998-045B","EPOCH":"2026-04-27T05:44:26.030688","MEAN_MOTION":14.16196529,"ECCENTRICITY":0.00093084,"INCLINATION":71.01,"RA_OF_ASC_NODE":79.4732,"ARG_OF_PERICENTER":301.6153,"MEAN_ANOMALY":58.4061,"EPHEMERIS_TYPE":0,"CLASSIFICATION_TYPE":"U","NORAD_CAT_ID":25407,"ELEMENT_SET_NO":999,"REV_AT_EPOCH":43397,"BSTAR":-5.3259178e-5,"MEAN_MOTION_DOT":-1.53e-6,"MEAN_MOTION_DDOT":0},{"OBJECT_NAME":"ISS (ZARYA)","OBJECT_ID":"1998-067A","EPOCH":"2026-04-27T04:01:32.075040","MEAN_MOTION":15.48984622,"ECCENTRICITY":0.00070425,"INCLINATION":51.6319,"RA_OF_ASC_NODE":192.6271,"ARG_OF_PERICENTER":355.6641,"MEAN_ANOMALY":4.4286,"EPHEMERIS_TYPE":0,"CLASSIFICATION_TYPE":"U","NORAD_CAT_ID":25544,"ELEMENT_SET_NO":999,"REV_AT_EPOCH":56384,"BSTAR":0.00020199612,"MEAN_MOTION_DOT":0.00010693,"MEAN_MOTION_DDOT":0},{"OBJECT_NAME":"CZ-4B R/B","OBJECT_ID":"1999-025C","EPOCH":"2026-04-27T02:58:41.691360","MEAN_MOTION":14.18274305,"ECCENTRICITY":0.00366973,"INCLINATION":98.6533,"RA_OF_ASC_NODE":160.236,"ARG_OF_PERICENTER":203.9553,"MEAN_ANOMALY":176.6051,"EPHEMERIS_TYPE":0,"CLASSIFICATION_TYPE":"U","NORAD_CAT_ID":25732,"ELEMENT_SET_NO":999,"REV_AT_EPOCH":39503,"BSTAR":3.7534597e-5,"MEAN_MOTION_DOT":3.5e-7,"MEAN_MOTION_DDOT":0},{"OBJECT_NAME":"OKEAN-O","OBJECT_ID":"1999-039A","EPOCH":"2026-04-27T02:45:53.020800","MEAN_MOTION":14.80404536,"ECCENTRICITY":0.00015497,"INCLINATION":97.9354,"RA_OF_ASC_NODE":176.4909,"ARG_OF_PERICENTER":113.8561,"MEAN_ANOMALY":246.2814,"EPHEMERIS_TYPE":0,"CLASSIFICATION_TYPE":"U","NORAD_CAT_ID":25860,"ELEMENT_SET_NO":999,"REV_AT_EPOCH":44155,"BSTAR":8.7350671e-5,"MEAN_MOTION_DOT":6.15e-6,"MEAN_MOTION_DDOT":0},{"OBJECT_NAME":"SL-16 R/B","OBJECT_ID":"1999-039B","EPOCH":"2026-04-27T02:48:45.006048","MEAN_MOTION":14.81791793,"ECCENTRICITY":0.0016168,"INCLINATION":97.9879,"RA_OF_ASC_NODE":176.1174,"ARG_OF_PERICENTER":99.8806,"MEAN_ANOMALY":260.4232,"EPHEMERIS_TYPE":0,"CLASSIFICATION_TYPE":"U","NORAD_CAT_ID":25861,"ELEMENT_SET_NO":999,"REV_AT_EPOCH":44403,"BSTAR":7.2135958e-5,"MEAN_MOTION_DOT":5.17e-6,"MEAN_MOTION_DDOT":0},{"OBJECT_NAME":"DELTA 2 R/B","OBJECT_ID":"1999-041E","EPOCH":"2026-04-27T06:50:38.326848","MEAN_MOTION":14.11932095,"ECCENTRICITY":0.05024432,"INCLINATION":51.7599,"RA_OF_ASC_NODE":107.1411,"ARG_OF_PERICENTER":131.7315,"MEAN_ANOMALY":232.773,"EPHEMERIS_TYPE":0,"CLASSIFICATION_TYPE":"U","NORAD_CAT_ID":25876,"ELEMENT_SET_NO":999,"REV_AT_EPOCH":36989,"BSTAR":0.0001541274,"MEAN_MOTION_DOT":7.14e-6,"MEAN_MOTION_DDOT":0}]
